[{"OBJECT_NAME":"STARLINK-4016","OBJECT_ID":"2022-052F","EPOCH":"2026-03-09T20:21:18.095040","MEAN_MOTION":15.08838271,"ECCENTRICITY":0.00012483,"INCLINATION":53.2166,"RA_OF_ASC_NODE":278.4217,"ARG_OF_PERICENTER":92.9844,"MEAN_ANOMALY":267.1291,"EPHEMERIS_TYPE":0,"CLASSIFICATION_TYPE":"U","NORAD_CAT_ID":52603,"ELEMENT_SET_NO":999,"REV_AT_EPOCH":21168,"BSTAR":-1.3735737e-5,"MEAN_MOTION_DOT":-5.06e-6,"MEAN_MOTION_DDOT":0},{"OBJECT_NAME":"LEMUR-2-LANGER2SPACE","OBJECT_ID":"2025-061H","EPOCH":"2026-03-09T22:29:21.653952","MEAN_MOTION":15.13463796,"ECCENTRICITY":0.00153346,"INCLINATION":97.5541,"RA_OF_ASC_NODE":45.3892,"ARG_OF_PERICENTER":237.418,"MEAN_ANOMALY":122.5571,"EPHEMERIS_TYPE":0,"CLASSIFICATION_TYPE":"U","NORAD_CAT_ID":63358,"ELEMENT_SET_NO":999,"REV_AT_EPOCH":5260,"BSTAR":0.00035148431,"MEAN_MOTION_DOT":6.238e-5,"MEAN_MOTION_DDOT":0}]
